[
    {
        "Altitude(m)": 714804.7887475631,
        "Argument of Periapsis(deg)": 0.010251109067964361,
        "Eccentricity": 0.0,
        "Inclination(deg)": 45.0,
        "Latitude(deg)": -37.70129904099204,
        "Longitude(deg)": 29.550933683944805,
        "Mean Anomaly(deg)": -120.5292050172672,
        "RAAN(deg)": 259.99032325268763,
        "Satellite Name": "Constellation 1 1158",
        "Satellite Number": 1158,
        "Semi-Major Axis(m)": 7083131.272910544,
        "Time(s)": 171
    },
    {
        "Altitude(m)": 714816.0819660291,
        "Argument of Periapsis(deg)": 0.010311057074209765,
        "Eccentricity": 0.0,
        "Inclination(deg)": 45.0,
        "Latitude(deg)": -37.72875185112917,
        "Longitude(deg)": 29.614979126698987,
        "Mean Anomaly(deg)": -120.46850387701737,
        "RAAN(deg)": 259.99026666352205,
        "Satellite Name": "Constellation 1 1158",
        "Satellite Number": 1158,
        "Semi-Major Axis(m)": 7083131.272910544,
        "Time(s)": 172
    },
    {
        "Altitude(m)": 714827.3600134269,
        "Argument of Periapsis(deg)": 0.010371005080455171,
        "Eccentricity": 0.0,
        "Inclination(deg)": 45.0,
        "Latitude(deg)": -37.756165070066146,
        "Longitude(deg)": 29.679074725568395,
        "Mean Anomaly(deg)": -120.4078027367674,
        "RAAN(deg)": 259.9902100743565,
        "Satellite Name": "Constellation 1 1158",
        "Satellite Number": 1158,
        "Semi-Major Axis(m)": 7083131.272910544,
        "Time(s)": 173
    },
    {
        "Altitude(m)": 714838.6228488645,
        "Argument of Periapsis(deg)": 0.010430953086700577,
        "Eccentricity": 0.0,
        "Inclination(deg)": 45.0,
        "Latitude(deg)": -37.7835386306081,
        "Longitude(deg)": 29.743220494818978,
        "Mean Anomaly(deg)": -120.34710159651749,
        "RAAN(deg)": 259.9901534851909,
        "Satellite Name": "Constellation 1 1158",
        "Satellite Number": 1158,
        "Semi-Major Axis(m)": 7083131.272910544,
        "Time(s)": 174
    },
    {
        "Altitude(m)": 714849.8704315152,
        "Argument of Periapsis(deg)": 0.010490901092945983,
        "Eccentricity": 0.0,
        "Inclination(deg)": 45.0,
        "Latitude(deg)": -37.81087246552342,
        "Longitude(deg)": 29.80741644839176,
        "Mean Anomaly(deg)": -120.28640045626766,
        "RAAN(deg)": 259.9900968960253,
        "Satellite Name": "Constellation 1 1158",
        "Satellite Number": 1158,
        "Semi-Major Axis(m)": 7083131.272910544,
        "Time(s)": 175
    },
    {
        "Altitude(m)": 714861.1027205862,
        "Argument of Periapsis(deg)": 0.010550849099191389,
        "Eccentricity": 0.0,
        "Inclination(deg)": 45.0,
        "Latitude(deg)": -37.838166507544244,
        "Longitude(deg)": 29.87166259990068,
        "Mean Anomaly(deg)": -120.2256993160177,
        "RAAN(deg)": 259.9900403068598,
        "Satellite Name": "Constellation 1 1158",
        "Satellite Number": 1158,
        "Semi-Major Axis(m)": 7083131.272910544,
        "Time(s)": 176
    },
    {
        "Altitude(m)": 714872.3196753581,
        "Argument of Periapsis(deg)": 0.010610797105436795,
        "Eccentricity": 0.0,
        "Inclination(deg)": 45.0,
        "Latitude(deg)": -37.86542068936655,
        "Longitude(deg)": 29.935958962630885,
        "Mean Anomaly(deg)": -120.16499817576785,
        "RAAN(deg)": 259.9899837176942,
        "Satellite Name": "Constellation 1 1158",
        "Satellite Number": 1158,
        "Semi-Major Axis(m)": 7083131.272910544,
        "Time(s)": 177
    },
    {
        "Altitude(m)": 714883.521255145,
        "Argument of Periapsis(deg)": 0.0106707451116822,
        "Eccentricity": 0.0,
        "Inclination(deg)": 45.0,
        "Latitude(deg)": -37.8926349436513,
        "Longitude(deg)": 30.000305381441628,
        "Mean Anomaly(deg)": -120.1042970355179,
        "RAAN(deg)": 259.9899271285287,
        "Satellite Name": "Constellation 1 1158",
        "Satellite Number": 1158,
        "Semi-Major Axis(m)": 7083131.272910544,
        "Time(s)": 178
    },
    {
        "Altitude(m)": 714894.707419319,
        "Argument of Periapsis(deg)": 0.010730693117927606,
        "Eccentricity": 0.0,
        "Inclination(deg)": 45.0,
        "Latitude(deg)": -37.91980920302326,
        "Longitude(deg)": 30.06470220515121,
        "Mean Anomaly(deg)": -120.043595895268,
        "RAAN(deg)": 259.98987053936304,
        "Satellite Name": "Constellation 1 1158",
        "Satellite Number": 1158,
        "Semi-Major Axis(m)": 7083131.272910544,
        "Time(s)": 179
    },
    {
        "Altitude(m)": 714905.8781273074,
        "Argument of Periapsis(deg)": 0.01079064112417301,
        "Eccentricity": 0.0,
        "Inclination(deg)": 45.0,
        "Latitude(deg)": -37.946943400073245,
        "Longitude(deg)": 30.12914927795448,
        "Mean Anomaly(deg)": -119.98289475501815,
        "RAAN(deg)": 259.98981395019746,
        "Satellite Name": "Constellation 1 1158",
        "Satellite Number": 1158,
        "Semi-Major Axis(m)": 7083131.272910544,
        "Time(s)": 180
    },
    {
        "Altitude(m)": 714917.0333385934,
        "Argument of Periapsis(deg)": 0.010850589130418416,
        "Eccentricity": 0.0,
        "Inclination(deg)": 45.0,
        "Latitude(deg)": -37.9740374673576,
        "Longitude(deg)": 30.19364661180963,
        "Mean Anomaly(deg)": -119.92219361476832,
        "RAAN(deg)": 259.98975736103193,
        "Satellite Name": "Constellation 1 1158",
        "Satellite Number": 1158,
        "Semi-Major Axis(m)": 7083131.272910544,
        "Time(s)": 181
    },
    {
        "Altitude(m)": 714928.1730127,
        "Argument of Periapsis(deg)": 0.01091053713666382,
        "Eccentricity": 0.0,
        "Inclination(deg)": 45.0,
        "Latitude(deg)": -38.00109133739862,
        "Longitude(deg)": 30.258194218339074,
        "Mean Anomaly(deg)": -119.86149247451834,
        "RAAN(deg)": 259.98970077186635,
        "Satellite Name": "Constellation 1 1158",
        "Satellite Number": 1158,
        "Semi-Major Axis(m)": 7083131.272910544,
        "Time(s)": 182
    },
    {
        "Altitude(m)": 714939.2971092156,
        "Argument of Periapsis(deg)": 0.010970485142909228,
        "Eccentricity": 0.0,
        "Inclination(deg)": 45.0,
        "Latitude(deg)": -38.028104942685054,
        "Longitude(deg)": 30.322792108828327,
        "Mean Anomaly(deg)": -119.8007913342684,
        "RAAN(deg)": 259.98964418270083,
        "Satellite Name": "Constellation 1 1158",
        "Satellite Number": 1158,
        "Semi-Major Axis(m)": 7083131.272910544,
        "Time(s)": 183
    },
    {
        "Altitude(m)": 714950.4055877752,
        "Argument of Periapsis(deg)": 0.011030433149154634,
        "Eccentricity": 0.0,
        "Inclination(deg)": 45.0,
        "Latitude(deg)": -38.0550782156724,
        "Longitude(deg)": 30.38744029422436,
        "Mean Anomaly(deg)": -119.7400901940186,
        "RAAN(deg)": 259.9895875935352,
        "Satellite Name": "Constellation 1 1158",
        "Satellite Number": 1158,
        "Semi-Major Axis(m)": 7083131.272910544,
        "Time(s)": 184
    },
    {
        "Altitude(m)": 714961.49840807,
        "Argument of Periapsis(deg)": 0.01109038115540004,
        "Eccentricity": 0.0,
        "Inclination(deg)": 45.0,
        "Latitude(deg)": -38.08201108878397,
        "Longitude(deg)": 30.452138617038067,
        "Mean Anomaly(deg)": -119.67938905376863,
        "RAAN(deg)": 259.9895310043696,
        "Satellite Name": "Constellation 1 1158",
        "Satellite Number": 1158,
        "Semi-Major Axis(m)": 7083131.272910544,
        "Time(s)": 185
    },
    {
        "Altitude(m)": 714972.5755298383,
        "Argument of Periapsis(deg)": 0.011150329161645444,
        "Eccentricity": 0.0,
        "Inclination(deg)": 45.0,
        "Latitude(deg)": -38.108903494409695,
        "Longitude(deg)": 30.516887423729504,
        "Mean Anomaly(deg)": -119.6186879135187,
        "RAAN(deg)": 259.9894744152041,
        "Satellite Name": "Constellation 1 1158",
        "Satellite Number": 1158,
        "Semi-Major Axis(m)": 7083131.272910544,
        "Time(s)": 186
    },
    {
        "Altitude(m)": 714983.6369128822,
        "Argument of Periapsis(deg)": 0.01121027716789085,
        "Eccentricity": 0.0,
        "Inclination(deg)": 45.0,
        "Latitude(deg)": -38.13575536490851,
        "Longitude(deg)": 30.581686556125273,
        "Mean Anomaly(deg)": -119.55798677326885,
        "RAAN(deg)": 259.9894178260385,
        "Satellite Name": "Constellation 1 1158",
        "Satellite Number": 1158,
        "Semi-Major Axis(m)": 7083131.272910544,
        "Time(s)": 187
    },
    {
        "Altitude(m)": 714994.682517053,
        "Argument of Periapsis(deg)": 0.011270225174136258,
        "Eccentricity": 0.0,
        "Inclination(deg)": 45.0,
        "Latitude(deg)": -38.162566632607636,
        "Longitude(deg)": 30.64653602380514,
        "Mean Anomaly(deg)": -119.49728563301902,
        "RAAN(deg)": 259.989361236873,
        "Satellite Name": "Constellation 1 1158",
        "Satellite Number": 1158,
        "Semi-Major Axis(m)": 7083131.272910544,
        "Time(s)": 188
    },
    {
        "Altitude(m)": 715005.7123022474,
        "Argument of Periapsis(deg)": 0.011330173180381662,
        "Eccentricity": 0.0,
        "Inclination(deg)": 45.0,
        "Latitude(deg)": -38.18933722980329,
        "Longitude(deg)": 30.711435836003254,
        "Mean Anomaly(deg)": -119.43658449276904,
        "RAAN(deg)": 259.9893046477074,
        "Satellite Name": "Constellation 1 1158",
        "Satellite Number": 1158,
        "Semi-Major Axis(m)": 7083131.272910544,
        "Time(s)": 189
    }
]